[Satellite]
VERSION=1.1
NAME=ONEWEB-0514
NICKNAME=ONEWEB-0514
TLE1=1 54132U 22138V   22321.58334491 -.00859044  00000+0 -12472+0 0  9994
TLE2=2 54132  87.4511 208.5529 0011293 186.1844   1.9642 14.78810528  1302
STATUS=0
